{
  "type": "FeatureCollection",
  "features": [
    {
      "type": "Feature",
      "properties": {
        "norad_id": 33822,
        "name": "COSMOS 2251 DEB",
        "group": "cosmos-2251-debris",
        "lat": 39.294198286330506,
        "lon": -161.91425055025854,
        "alt_km": 954.8239804695031,
        "timestamp": "2025-12-17T21:39:46.082470+00:00",
        "meta_object_name": "COSMOS 2251 DEB",
        "meta_object_id": "1993-036BP",
        "meta_epoch": "2025-12-17T13:07:00.689664",
        "meta_mean_motion": 14.13092932,
        "meta_eccentricity": 0.01530241,
        "meta_inclination": 74.0681,
        "meta_ra_of_asc_node": 185.1965,
        "meta_arg_of_pericenter": 230.3483,
        "meta_mean_anomaly": 159.9517,
        "meta_ephemeris_type": 0,
        "meta_classification_type": "U",
        "meta_norad_cat_id": 33822,
        "meta_element_set_no": 999,
        "meta_rev_at_epoch": 86122,
        "meta_bstar": 0.00097175665,
        "meta_mean_motion_dot": 2.004e-05,
        "meta_mean_motion_ddot": 0,
        "tle_line1": "1 33822U 93036BP  25351.54653576  .00002004  00000+0  97176-3 0  9994",
        "tle_line2": "2 33822  74.0681 185.1965 0153024 230.3483 159.9517 14.13092932861229"
      },
      "geometry": {
        "type": "Point",
        "coordinates": [
          -161.91425055025854,
          39.294198286330506
        ]
      }
    },
    {
      "type": "Feature",
      "properties": {
        "norad_id": 33823,
        "name": "COSMOS 2251 DEB",
        "group": "cosmos-2251-debris",
        "lat": -35.37467985088393,
        "lon": 128.37789118622115,
        "alt_km": 821.1922725122358,
        "timestamp": "2025-12-17T21:39:46.082479+00:00",
        "meta_object_name": "COSMOS 2251 DEB",
        "meta_object_id": "1993-036BQ",
        "meta_epoch": "2025-12-17T11:53:28.271904",
        "meta_mean_motion": 13.9896208,
        "meta_eccentricity": 0.02093514,
        "meta_inclination": 73.8093,
        "meta_ra_of_asc_node": 140.9955,
        "meta_arg_of_pericenter": 265.3863,
        "meta_mean_anomaly": 165.8734,
        "meta_ephemeris_type": 0,
        "meta_classification_type": "U",
        "meta_norad_cat_id": 33823,
        "meta_element_set_no": 999,
        "meta_rev_at_epoch": 85676,
        "meta_bstar": 0.00066838344,
        "meta_mean_motion_dot": 1.138e-05,
        "meta_mean_motion_ddot": 0,
        "tle_line1": "1 33823U 93036BQ  25351.49546611  .00001138  00000+0  66838-3 0  9998",
        "tle_line2": "2 33823  73.8093 140.9955 0209351 265.3863 165.8734 13.98962080856769"
      },
      "geometry": {
        "type": "Point",
        "coordinates": [
          128.37789118622115,
          -35.37467985088393
        ]
      }
    },
    {
      "type": "Feature",
      "properties": {
        "norad_id": 33825,
        "name": "COSMOS 2251 DEB",
        "group": "cosmos-2251-debris",
        "lat": -26.682453431033856,
        "lon": -153.94885153949505,
        "alt_km": 709.6212859932202,
        "timestamp": "2025-12-17T21:39:46.082489+00:00",
        "meta_object_name": "COSMOS 2251 DEB",
        "meta_object_id": "1993-036BS",
        "meta_epoch": "2025-12-17T13:16:56.823744",
        "meta_mean_motion": 14.69804715,
        "meta_eccentricity": 0.00847928,
        "meta_inclination": 73.985,
        "meta_ra_of_asc_node": 18.4304,
        "meta_arg_of_pericenter": 344.3163,
        "meta_mean_anomaly": 177.249,
        "meta_ephemeris_type": 0,
        "meta_classification_type": "U",
        "meta_norad_cat_id": 33825,
        "meta_element_set_no": 999,
        "meta_rev_at_epoch": 88950,
        "meta_bstar": 0.0006054093,
        "meta_mean_motion_dot": 3.787e-05,
        "meta_mean_motion_ddot": 0,
        "tle_line1": "1 33825U 93036BS  25351.55343546  .00003787  00000+0  60541-3 0  9996",
        "tle_line2": "2 33825  73.9850  18.4304 0084792 344.3163 177.2490 14.69804715889504"
      },
      "geometry": {
        "type": "Point",
        "coordinates": [
          -153.94885153949505,
          -26.682453431033856
        ]
      }
    },
    {
      "type": "Feature",
      "properties": {
        "norad_id": 33826,
        "name": "COSMOS 2251 DEB",
        "group": "cosmos-2251-debris",
        "lat": 53.157900143438326,
        "lon": -162.2459935028499,
        "alt_km": 669.9330145537269,
        "timestamp": "2025-12-17T21:39:46.082499+00:00",
        "meta_object_name": "COSMOS 2251 DEB",
        "meta_object_id": "1993-036BT",
        "meta_epoch": "2025-12-17T13:31:06.742272",
        "meta_mean_motion": 14.51746226,
        "meta_eccentricity": 0.00827202,
        "meta_inclination": 74.0649,
        "meta_ra_of_asc_node": 40.8077,
        "meta_arg_of_pericenter": 83.5495,
        "meta_mean_anomaly": 66.6523,
        "meta_ephemeris_type": 0,
        "meta_classification_type": "U",
        "meta_norad_cat_id": 33826,
        "meta_element_set_no": 999,
        "meta_rev_at_epoch": 87839,
        "meta_bstar": 0.00050987565,
        "meta_mean_motion_dot": 2.114e-05,
        "meta_mean_motion_ddot": 0,
        "tle_line1": "1 33826U 93036BT  25351.56327248  .00002114  00000+0  50988-3 0  9996",
        "tle_line2": "2 33826  74.0649  40.8077 0082720  83.5495  66.6523 14.51746226878394"
      },
      "geometry": {
        "type": "Point",
        "coordinates": [
          -162.2459935028499,
          53.157900143438326
        ]
      }
    },
    {
      "type": "Feature",
      "properties": {
        "norad_id": 33828,
        "name": "COSMOS 2251 DEB",
        "group": "cosmos-2251-debris",
        "lat": -58.16131223901015,
        "lon": 75.92137543277774,
        "alt_km": 739.9256856848433,
        "timestamp": "2025-12-17T21:39:46.082508+00:00",
        "meta_object_name": "COSMOS 2251 DEB",
        "meta_object_id": "1993-036BV",
        "meta_epoch": "2025-12-17T15:39:27.132768",
        "meta_mean_motion": 14.44347563,
        "meta_eccentricity": 0.00294896,
        "meta_inclination": 74.0456,
        "meta_ra_of_asc_node": 228.9549,
        "meta_arg_of_pericenter": 301.1349,
        "meta_mean_anomaly": 80.6498,
        "meta_ephemeris_type": 0,
        "meta_classification_type": "U",
        "meta_norad_cat_id": 33828,
        "meta_element_set_no": 999,
        "meta_rev_at_epoch": 88384,
        "meta_bstar": 0.00034588602,
        "meta_mean_motion_dot": 1.17e-05,
        "meta_mean_motion_ddot": 0,
        "tle_line1": "1 33828U 93036BV  25351.65239737  .00001170  00000+0  34589-3 0  9993",
        "tle_line2": "2 33828  74.0456 228.9549 0029489 301.1349  80.6498 14.44347563883841"
      },
      "geometry": {
        "type": "Point",
        "coordinates": [
          75.92137543277774,
          -58.16131223901015
        ]
      }
    },
    {
      "type": "Feature",
      "properties": {
        "norad_id": 33830,
        "name": "COSMOS 2251 DEB",
        "group": "cosmos-2251-debris",
        "lat": 2.406561562965571,
        "lon": -139.06688099430664,
        "alt_km": 613.88731415046,
        "timestamp": "2025-12-17T21:39:46.082518+00:00",
        "meta_object_name": "COSMOS 2251 DEB",
        "meta_object_id": "1993-036BX",
        "meta_epoch": "2025-12-17T15:17:12.829056",
        "meta_mean_motion": 14.76953821,
        "meta_eccentricity": 0.00425117,
        "meta_inclination": 74.0319,
        "meta_ra_of_asc_node": 220.7643,
        "meta_arg_of_pericenter": 339.8145,
        "meta_mean_anomaly": 50.6642,
        "meta_ephemeris_type": 0,
        "meta_classification_type": "U",
        "meta_norad_cat_id": 33830,
        "meta_element_set_no": 999,
        "meta_rev_at_epoch": 89544,
        "meta_bstar": 0.00060015555,
        "meta_mean_motion_dot": 4.257e-05,
        "meta_mean_motion_ddot": 0,
        "tle_line1": "1 33830U 93036BX  25351.63695404  .00004257  00000+0  60016-3 0  9994",
        "tle_line2": "2 33830  74.0319 220.7643 0042511 339.8145  50.6642 14.76953821895442"
      },
      "geometry": {
        "type": "Point",
        "coordinates": [
          -139.06688099430664,
          2.406561562965571
        ]
      }
    },
    {
      "type": "Feature",
      "properties": {
        "norad_id": 33832,
        "name": "COSMOS 2251 DEB",
        "group": "cosmos-2251-debris",
        "lat": 64.13027926017205,
        "lon": -16.007502547760637,
        "alt_km": 692.8182286957526,
        "timestamp": "2025-12-17T21:39:46.082527+00:00",
        "meta_object_name": "COSMOS 2251 DEB",
        "meta_object_id": "1993-036BZ",
        "meta_epoch": "2025-12-17T14:52:09.107040",
        "meta_mean_motion": 14.60703291,
        "meta_eccentricity": 0.00245324,
        "meta_inclination": 74.0534,
        "meta_ra_of_asc_node": 200.6635,
        "meta_arg_of_pericenter": 230.791,
        "meta_mean_anomaly": 192.147,
        "meta_ephemeris_type": 0,
        "meta_classification_type": "U",
        "meta_norad_cat_id": 33832,
        "meta_element_set_no": 999,
        "meta_rev_at_epoch": 88496,
        "meta_bstar": 0.00095550266,
        "meta_mean_motion_dot": 4.649e-05,
        "meta_mean_motion_ddot": 0,
        "tle_line1": "1 33832U 93036BZ  25351.61954985  .00004649  00000+0  95550-3 0  9992",
        "tle_line2": "2 33832  74.0534 200.6635 0024532 230.7910 192.1470 14.60703291884966"
      },
      "geometry": {
        "type": "Point",
        "coordinates": [
          -16.007502547760637,
          64.13027926017205
        ]
      }
    }
  ]
}